NORAD_CAT_ID,OBJECT_NAME,OBJECT_TYPE,EPOCH,MEAN_MOTION,ECCENTRICITY,INCLINATION,RA_OF_ASC_NODE,ARG_OF_PERICENTER,MEAN_ANOMALY,BSTAR,MEAN_MOTION_DOT,MEAN_MOTION_DDOT,TLE_LINE0,TLE_LINE1,TLE_LINE2,SEMIMAJOR_AXIS,PERIOD,APOGEE,PERIGEE,DECAYED
49762.0,STARLINK-3195,PAYLOAD,2022-06-14 19:49:33,15.08841157,0.0002861,53.2201,141.7522,45.565,314.5576,3.3031e-05,2.37e-06,0.0,0 STARLINK-3195,1 49762U 21115AQ  22165.82607778  .00000237  00000-0  33031-4 0  9995,2 49762  53.2201 141.7522 0002861  45.5650 314.5576 15.08841157 29784,6917.877,95.437,541.721,537.763,0.0
49762.0,STARLINK-3195,PAYLOAD,2022-06-15 05:21:51,15.08842113,0.0002853,53.22,139.968,46.6969,313.4261,2.8234e-05,1.61e-06,0.0,0 STARLINK-3195,1 49762U 21115AQ  22166.22351652  .00000161  00000-0  28234-4 0  9992,2 49762  53.2200 139.9680 0002853  46.6969 313.4261 15.08842113 29842,6917.874,95.437,541.7130000000002,537.765,0.0
49762.0,STARLINK-3195,PAYLOAD,2022-06-15 19:40:20,15.08836429,0.0002888,53.2201,137.2922,46.3385,313.7846,-4.4733e-05,-1e-05,0.0,0 STARLINK-3195,1 49762U 21115AQ  22166.81968450 -.00001000  00000-0 -44733-4 0  9994,2 49762  53.2201 137.2922 0002888  46.3385 313.7846 15.08836429 31040,6917.891,95.438,541.754,537.758,0.0
49762.0,STARLINK-3195,PAYLOAD,2022-06-15 21:15:43,15.08838378,0.0002853,53.22,136.9948,46.8359,313.2871,-5.6087e-05,-1.181e-05,0.0,0 STARLINK-3195,1 49762U 21115AQ  22166.88592384 -.00001181  00000-0 -56087-4 0  9995,2 49762  53.2200 136.9948 0002853  46.8359 313.2871 15.08838378 29945,6917.885,95.438,541.724,537.7769999999998,0.0
49762.0,STARLINK-3195,PAYLOAD,2022-06-19 03:09:37,15.08841314,0.0003016,53.2216,122.4251,52.1174,308.0091,9.0665e-05,1.155e-05,0.0,0 STARLINK-3195,1 49762U 21115AQ  22170.13168158  .00001155  00000-0  90665-4 0  9995,2 49762  53.2216 122.4251 0003016  52.1174 308.0091 15.08841314 30432,6917.876,95.437,541.828,537.655,0.0
49762.0,STARLINK-3195,PAYLOAD,2022-06-19 14:17:19,15.08842208,0.0002998,53.2214,120.3435,52.7024,307.4241,5.7487e-05,6.26e-06,0.0,0 STARLINK-3195,1 49762U 21115AQ  22170.59536163  .00000626  00000-0  57487-4 0  9997,2 49762  53.2214 120.3435 0002998  52.7024 307.4241 15.08842208 31613,6917.874,95.437,541.813,537.665,0.0
49762.0,STARLINK-3195,PAYLOAD,2022-06-19 20:38:51,15.0883984,0.0003052,53.2218,119.1545,53.6069,306.5205,2.8546e-05,1.66e-06,0.0,0 STARLINK-3195,1 49762U 21115AQ  22170.86032381  .00000166  00000-0  28546-4 0  9993,2 49762  53.2218 119.1545 0003052  53.6069 306.5205 15.08839840 30545,6917.880999999999,95.438,541.857,537.635,0.0
49762.0,STARLINK-3195,PAYLOAD,2022-06-20 03:00:24,15.08838251,0.0002759,53.2182,117.9626,55.5362,304.589,2.0991e-05,4.6e-07,0.0,0 STARLINK-3195,1 49762U 21115AQ  22171.12528389  .00000046  00000-0  20991-4 0  9994,2 49762  53.2182 117.9626 0002759  55.5362 304.5890 15.08838251 30588,6917.886,95.438,541.659,537.842,0.0
49762.0,STARLINK-3195,PAYLOAD,2022-06-21 01:15:49,15.0882736,0.0002843,53.2186,113.802,52.8969,307.2283,-0.00015466,-2.748e-05,0.0,0 STARLINK-3195,1 49762U 21115AQ  22172.05265821 -.00002748  00000-0 -15466-3 0  9999,2 49762  53.2186 113.8020 0002843  52.8969 307.2283 15.08827360 31836,6917.919,95.438,541.751,537.817,0.0
49762.0,STARLINK-3195,PAYLOAD,2022-06-21 06:01:59,15.08818269,0.0002786,53.2186,112.9101,48.831,311.2922,-4.73e-05,-1.041e-05,0.0,0 STARLINK-3195,1 49762U 21115AQ  22172.25138269 -.00001041  00000-0 -47300-4 0  9994,2 49762  53.2186 112.9101 0002786  48.8310 311.2922 15.08818269 30750,6917.946999999999,95.439,541.739,537.884,0.0
49762.0,STARLINK-3195,PAYLOAD,2022-06-21 18:45:04,15.08829818,0.0002901999999999,53.2188,110.5318,50.1049,310.0198,-9.0441e-05,-1.727e-05,0.0,0 STARLINK-3195,1 49762U 21115AQ  22172.78130172 -.00001727  00000-0 -90441-4 0  9992,2 49762  53.2188 110.5318 0002902  50.1049 310.0198 15.08829818 30834,6917.9119999999975,95.438,541.784,537.769,0.0
49762.0,STARLINK-3195,PAYLOAD,2022-06-22 01:06:37,15.088266,0.0002782,53.2187,109.3425,50.897,309.2269,2.7139e-05,1.43e-06,0.0,0 STARLINK-3195,1 49762U 21115AQ  22173.04626192  .00000143  00000-0  27139-4 0  9997,2 49762  53.2187 109.3425 0002782  50.8970 309.2269 15.08826600 31986,6917.920999999999,95.438,541.711,537.862,0.0
49762.0,STARLINK-3195,PAYLOAD,2022-06-22 12:14:19,15.08827402,0.0002851,53.2188,107.261,49.8839,310.2403,3.0876e-05,2.03e-06,0.0,0 STARLINK-3195,1 49762U 21115AQ  22173.50994561  .00000203  00000-0  30876-4 0  9995,2 49762  53.2188 107.2610 0002851  49.8839 310.2403 15.08827402 30947,6917.919,95.438,541.756,537.812,0.0
49762.0,STARLINK-3195,PAYLOAD,2022-06-22 18:35:51,15.08830075,0.0002576,53.2188,106.0707,52.9222,307.2005,0.00019581,2.829e-05,0.0,0 STARLINK-3195,1 49762U 21115AQ  22173.77489721  .00002829  00000-0  19581-3 0  9996,2 49762  53.2188 106.0707 0002576  52.9222 307.2005 15.08830075 32098,6917.911,95.438,541.558,537.994,0.0
49762.0,STARLINK-3195,PAYLOAD,2022-06-23 02:32:46,15.08837974,0.0002686,53.2188,104.5843,52.7243,307.3994,0.00024152,3.557e-05,0.0,0 STARLINK-3195,1 49762U 21115AQ  22174.10609276  .00003557  00000-0  24152-3 0  9992,2 49762  53.2188 104.5843 0002686  52.7243 307.3994 15.08837974 32144,6917.887,95.438,541.61,537.893,0.0
49762.0,STARLINK-3195,PAYLOAD,2022-06-23 18:26:38,15.08836735,0.000275,53.2188,101.6115,53.9423,306.1824,0.00014073,1.952e-05,0.0,0 STARLINK-3195,1 49762U 21115AQ  22174.76849861  .00001952  00000-0  14073-3 0  9998,2 49762  53.2188 101.6115 0002750  53.9423 306.1824 15.08836735 32243,6917.89,95.438,541.658,537.8530000000002,0.0
49762.0,STARLINK-3195,PAYLOAD,2022-06-24 11:55:53,15.088382500000002,0.0002607,53.2186,98.3407,54.4834,305.6401,-1.9834e-05,-6.04e-06,0.0,0 STARLINK-3195,1 49762U 21115AQ  22175.49714222 -.00000604  00000-0 -19834-4 0  9997,2 49762  53.2186  98.3407 0002607  54.4834 305.6401 15.08838250 31248,6917.886,95.438,541.554,537.947,0.0
49762.0,STARLINK-3195,PAYLOAD,2022-06-24 18:17:25,15.08843337,0.0002613,53.2188,97.1509,54.5325,305.5911,-4.6601e-05,-1.03e-05,0.0,0 STARLINK-3195,1 49762U 21115AQ  22175.76210024 -.00001030  00000-0 -46601-4 0  9994,2 49762  53.2188  97.1509 0002613  54.5325 305.5911 15.08843337 31284,6917.87,95.437,541.543,537.928,0.0
49762.0,STARLINK-3195,PAYLOAD,2022-06-25 02:14:20,15.08847309,0.0002672,53.2188,95.6638,55.7211,304.4034,-1.1783e-05,-4.76e-06,0.0,0 STARLINK-3195,1 49762U 21115AQ  22176.09329533 -.00000476  00000-0 -11783-4 0  9993,2 49762  53.2188  95.6638 0002672  55.7211 304.4034 15.08847309 32448,6917.858,95.437,541.572,537.875,0.0
49762.0,STARLINK-3195,PAYLOAD,2022-06-25 11:46:40,15.08833491,0.0002708,53.2185,93.8797,55.5036,304.6212,-6.165100000000001e-05,-1.269e-05,0.0,0 STARLINK-3195,1 49762U 21115AQ  22176.49074589 -.00001269  00000-0 -61651-4 0  9995,2 49762  53.2185  93.8797 0002708  55.5036 304.6212 15.08833491 32508,6917.9,95.438,541.639,537.8919999999998,0.0
49762.0,STARLINK-3195,PAYLOAD,2022-06-25 18:08:12,15.08838451,0.0002602,53.2194,92.6908,52.8428,307.2801,-2.9575e-05,-7.59e-06,0.0,0 STARLINK-3195,1 49762U 21115AQ  22176.75570192 -.00000759  00000-0 -29575-4 0  9997,2 49762  53.2194  92.6908 0002602  52.8428 307.2801 15.08838451 31432,6917.885,95.438,541.55,537.95,0.0
49762.0,STARLINK-3195,PAYLOAD,2022-06-26 03:40:30,15.08845642,0.0002634999999999,53.2191,90.9063,53.1746,306.9487,5.4273e-05,5.76e-06,0.0,0 STARLINK-3195,1 49762U 21115AQ  22177.15313453  .00000576  00000-0  54273-4 0  9995,2 49762  53.2191  90.9063 0002635  53.1746 306.9487 15.08845642 32601,6917.863,95.437,541.5509999999998,537.905,0.0
49762.0,STARLINK-3195,PAYLOAD,2022-06-26 11:37:26,15.08846091,0.0002589,53.2189,89.4197,55.8104,304.3133,0.00015353,2.156e-05,0.0,0 STARLINK-3195,1 49762U 21115AQ  22177.48433096  .00002156  00000-0  15353-3 0  9998,2 49762  53.2189  89.4197 0002589  55.8104 304.3133 15.08846091 31545,6917.861999999999,95.437,541.518,537.936,0.0
49762.0,STARLINK-3195,PAYLOAD,2022-06-26 17:58:58,15.08848614,0.000267,53.219,88.2306,57.4023,302.7227,0.00010359,1.361e-05,0.0,0 STARLINK-3195,1 49762U 21115AQ  22177.74929049  .00001361  00000-0  10359-3 0  9993,2 49762  53.2190  88.2306 0002670  57.4023 302.7227 15.08848614 31588,6917.854,95.437,541.566,537.872,0.0
49762.0,STARLINK-3195,PAYLOAD,2022-06-27 11:28:14,15.08834107,0.0002549,53.2195,84.9587,57.762,302.3619,5.7335e-05,6.24e-06,0.0,0 STARLINK-3195,1 49762U 21115AQ  22178.47794037  .00000624  00000-0  57335-4 0  9998,2 49762  53.2195  84.9587 0002549  57.7620 302.3619 15.08834107 32807,6917.898,95.438,541.5269999999998,538.0,0.0
49762.0,STARLINK-3195,PAYLOAD,2022-06-27 21:00:32,15.08835989,0.0002553,53.2193,83.1745,58.2442,301.8798,3.6886e-05,2.99e-06,0.0,0 STARLINK-3195,1 49762U 21115AQ  22178.87538052  .00000299  00000-0  36886-4 0  9991,2 49762  53.2193  83.1745 0002553  58.2442 301.8798 15.08835989 31759,6917.893,95.438,541.524,537.992,0.0
49762.0,STARLINK-3195,PAYLOAD,2022-06-28 01:46:42,15.08837626,0.0002536,53.2195,82.2822,59.0434,301.0807,1.053e-05,-1.21e-06,0.0,0 STARLINK-3195,1 49762U 21115AQ  22179.07410035 -.00000121  00000-0  10530-4 0  9997,2 49762  53.2195  82.2822 0002536  59.0434 301.0807 15.08837626 31784,6917.888000000001,95.438,541.507,537.998,0.0
49762.0,STARLINK-3195,PAYLOAD,2022-06-28 20:51:20,15.08835063,0.0002429,53.2191,78.7139,59.6083,300.5149,-3.2335e-05,-8.03e-06,0.0,0 STARLINK-3195,1 49762U 21115AQ  22179.86898196 -.00000803  00000-0 -32335-4 0  9997,2 49762  53.2191  78.7139 0002429  59.6083 300.5149 15.08835063 31908,6917.895,95.438,541.441,538.08,0.0
49762.0,STARLINK-3195,PAYLOAD,2022-06-29 01:37:29,15.08830382,0.0002492,53.2188,77.8226,56.9268,303.1963,-4.1465e-05,-9.48e-06,0.0,0 STARLINK-3195,1 49762U 21115AQ  22180.06770624 -.00000948  00000-0 -41465-4 0  9990,2 49762  53.2188  77.8226 0002492  56.9268 303.1963 15.08830382 31931,6917.91,95.438,541.499,538.0509999999998,0.0
